GSAT-17                 
1 42815U 17040B   26161.50105451 -.00000240  00000+0  00000+0 0  9994
2 42815   0.1091  88.1301 0001615 210.8057 233.8159  1.00271086 32720
INTELSAT 35E (IS-35E)   
1 42818U 17041A   26161.47571884 -.00000220  00000+0  00000+0 0  9999
2 42818   0.0045  72.9661 0001663   5.0881 317.5690  1.00271241 32748
COSMOS 2520             
1 42907U 17046A   26159.63781562  .00000153  00000+0  00000+0 0  9998
2 42907   0.0442  86.9350 0001169  55.5058  29.2057  1.00270113 32319
TDRS 13                 
1 42915U 17047A   26161.45359017 -.00000085  00000+0  00000+0 0  9992
2 42915   3.4498   2.5513 0014533 105.7433 302.3758  1.00271734 32284
QZS-3 (MICHIBIKI-3)     
1 42917U 17048A   26161.50530883 -.00000331  00000+0  00000+0 0  9997
2 42917   0.0569 174.0853 0002589 274.1258 119.5722  1.00268300 32198
AMAZONAS 5              
1 42934U 17053A   26160.32980735 -.00000266  00000+0  00000+0 0  9993
2 42934   0.0312 323.9850 0002412  64.7103 286.7531  1.00270254 31962
INTELSAT 37E (IS-37E)   
1 42950U 17059A   26161.31711630 -.00000123  00000+0  00000+0 0  9995
2 42950   0.0043  78.2474 0002381  24.2615 252.3325  1.00270044 31997
BSAT-4A                 
1 42951U 17059B   26160.00712714 -.00000334  00000+0  00000+0 0  9999
2 42951   0.0365   6.7991 0004164  58.5529 304.4340  1.00272912 31712
QZS-4 (MICHIBIKI-4)     
1 42965U 17062A   26161.36564781 -.00000314  00000+0  00000+0 0  9995
2 42965  40.1123 343.5704 0745142 271.6178 272.7130  1.00252759 31737
SES-11 (ECHOSTAR 105)   
1 42967U 17063A   26160.67756544 -.00000072  00000+0  00000+0 0  9992
2 42967   0.0151 352.2876 0002679  98.2971 306.4353  1.00270770 31642
KOREASAT 5A             
1 42984U 17067A   26161.43360081 -.00000341  00000+0  00000+0 0  9996
2 42984   0.0084 326.0092 0000507 126.1368  75.9019  1.00270314 31465
ALCOMSAT 1              
1 43039U 17078A   26161.47753884 -.00000168  00000+0  00000+0 0  9998
2 43039   0.0389  74.4234 0002274   1.0283 330.5123  1.00272182 31222
SBIRS GEO-3 (USA 282)   
1 43162U 18009A   26161.51711372  .00000144  00000+0  00000+0 0  9994
2 43162   2.1789  11.7602 0001958  62.5093 211.3747  1.00272026 30772
AL YAH 3                
1 43174U 18012A   26161.33592774 -.00000138  00000+0  00000+0 0  9998
2 43174   1.5332  83.1895 0004026 356.3531 279.9963  1.00270951 30774
SES-14                  
1 43175U 18012B   26160.47501219 -.00000261  00000+0  00000+0 0  9994
2 43175   0.0220  31.0141 0001057  53.8990 296.4420  1.00270313  6946
GOES 17                 
1 43226U 18022A   26161.53607558 -.00000165  00000+0  00000+0 0  9996
2 43226   0.9194  85.8321 0000523  20.0838 256.4799  1.00271146 30355
HISPASAT 30W-6          
1 43228U 18023A   26160.19333439 -.00000199  00000+0  00000+0 0  9991
2 43228   0.0466  43.0702 0006065  24.4046 229.6971  1.00270107 30322
SUPERBIRD-B3            
1 43271U 18033A   26161.51460237 -.00000075  00000+0  00000+0 0  9997
2 43271   0.0145 303.6867 0001230 160.7888 141.6587  1.00270640 29997
HYLAS 4                 
1 43272U 18033B   26160.47778553 -.00000216  00000+0  00000+0 0  9992
2 43272   0.0194  57.3369 0001003  29.6517 309.4007  1.00269264 29982
IRNSS-1I                
1 43286U 18035A   26160.85164676  .00000089  00000+0  00000+0 0  9993
2 43286  28.7370  74.3113 0017838 182.3918   2.9871  1.00270544 30003
APSTAR-6C               
1 43450U 18041A   26161.50905568 -.00000300  00000+0  00000+0 0  9996
2 43450   0.0242 336.9769 0001144  13.4178 225.7512  1.00272120 29744
BANGABANDHUSAT-1        
1 43463U 18044A   26161.43481414  .00000000  00000+0  00000+0 0  9990
2 43463   0.0173 350.4797 0001713  92.8633  91.0766  1.00268064 29648
SES-12                  
1 43488U 18049A   26160.84191638 -.00000252  00000+0  00000+0 0  9992
2 43488   0.0287  45.0830 0000922 240.6472  10.5699  1.00269142 29347
FENGYUN 2H              
1 43491U 18050A   26161.49828117 -.00000114  00000+0  00000+0 0  9996
2 43491   3.0128  79.1544 0001684 128.6364 309.8929  1.00270758 29377
BEIDOU-2 IGSO-7         
1 43539U 18057A   26161.43299414  .00000040  00000+0  00000+0 0  9999
2 43539  55.1935 163.1168 0104878 237.9408 124.0886  1.00253264 29060
TELSTAR 19V             
1 43562U 18059A   26160.04519647 -.00000262  00000+0  00000+0 0  9993
2 43562   0.0357 175.1217 0003228 305.1580  90.4046  1.00255741 29063
TELKOM 4 (MERAH PUTIH)  
1 43587U 18064A   26161.61796927  .00000000  00000+0  00000+0 0  9997
2 43587   0.0184 358.1257 0001302 117.4728 113.8406  1.00267811 28817
TELSTAR 18V             
1 43611U 18069A   26161.50983568 -.00000276  00000+0  00000+0 0  9993
2 43611   0.0162 294.2125 0001744 143.0818 143.1297  1.00269964 28578
AZERSPACE 2 (IS-38)     
1 43632U 18074A   26161.56271131  .00000154  00000+0  00000+0 0  9998
2 43632   0.0027  66.4415 0001236  15.4806  64.6887  1.00271783 28380
